0 ARIANE 42P+ DEB
1 34189U 92072V   13287.70149021 -.00000719  00000-0 -25091-1 0  3474
2 34189 006.1447 059.0149 6511071 014.6357 004.4075 02.90422953 86846
0 ARIANE 42P+ DEB
1 34189U 92072V   13295.26906585 -.00000889  00000-0 -30293-1 0  3489
2 34189 006.1656 055.4886 6514236 021.6744 356.2621 02.90409454 87061
